CCSDS_OMM_VERS = 2.0
CREATION_DATE  = 
ORIGINATOR     = 

OBJECT_NAME    = H-2A R/B
OBJECT_ID      = 2006-002B
CENTER_NAME    = EARTH
REF_FRAME      = TEME
TIME_SYSTEM    = UTC
MEAN_ELEMENT_THEORY = SGP/SGP4

EPOCH          = 2026-03-25T15:24:29.883456
MEAN_MOTION    = 15.16761177
ECCENTRICITY   = .0052352
INCLINATION    = 98.2440
RA_OF_ASC_NODE = 233.0443
ARG_OF_PERICENTER = 186.4070
MEAN_ANOMALY   = 173.6498

EPHEMERIS_TYPE = 0
CLASSIFICATION_TYPE = U
NORAD_CAT_ID   = 28932
ELEMENT_SET_NO = 999
REV_AT_EPOCH   = 9685
BSTAR          = .52589E-3
MEAN_MOTION_DOT = .10616E-3
MEAN_MOTION_DDOT = 0

CCSDS_OMM_VERS = 2.0
CREATION_DATE  = 
ORIGINATOR     = 

OBJECT_NAME    = RESURS-DK 1
OBJECT_ID      = 2006-021A
CENTER_NAME    = EARTH
REF_FRAME      = TEME
TIME_SYSTEM    = UTC
MEAN_ELEMENT_THEORY = SGP/SGP4

EPOCH          = 2026-03-25T17:38:44.812032
MEAN_MOTION    = 15.12846664
ECCENTRICITY   = .0000875
INCLINATION    = 69.9337
RA_OF_ASC_NODE = 195.5164
ARG_OF_PERICENTER = 71.7996
MEAN_ANOMALY   = 288.3265

EPHEMERIS_TYPE = 0
CLASSIFICATION_TYPE = U
NORAD_CAT_ID   = 29228
ELEMENT_SET_NO = 999
REV_AT_EPOCH   = 8995
BSTAR          = .13646E-3
MEAN_MOTION_DOT = .2297E-4
MEAN_MOTION_DDOT = 0

CCSDS_OMM_VERS = 2.0
CREATION_DATE  = 
ORIGINATOR     = 

OBJECT_NAME    = CZ-4B R/B
OBJECT_ID      = 2006-046C
CENTER_NAME    = EARTH
REF_FRAME      = TEME
TIME_SYSTEM    = UTC
MEAN_ELEMENT_THEORY = SGP/SGP4

EPOCH          = 2026-03-25T20:03:43.775712
MEAN_MOTION    = 15.17062622
ECCENTRICITY   = .0032443
INCLINATION    = 97.5563
RA_OF_ASC_NODE = 129.7007
ARG_OF_PERICENTER = 209.0385
MEAN_ANOMALY   = 150.9045

EPHEMERIS_TYPE = 0
CLASSIFICATION_TYPE = U
NORAD_CAT_ID   = 29507
ELEMENT_SET_NO = 999
REV_AT_EPOCH   = 6249
BSTAR          = .18914E-3
MEAN_MOTION_DOT = .3723E-4
MEAN_MOTION_DDOT = 0

CCSDS_OMM_VERS = 2.0
CREATION_DATE  = 
ORIGINATOR     = 

OBJECT_NAME    = CZ-2C R/B
OBJECT_ID      = 2007-010B
CENTER_NAME    = EARTH
REF_FRAME      = TEME
TIME_SYSTEM    = UTC
MEAN_ELEMENT_THEORY = SGP/SGP4

EPOCH          = 2026-03-25T13:51:09.710208
MEAN_MOTION    = 14.20251720
ECCENTRICITY   = .0057936
INCLINATION    = 98.3996
RA_OF_ASC_NODE = 197.0610
ARG_OF_PERICENTER = 247.5032
MEAN_ANOMALY   = 112.0005

EPHEMERIS_TYPE = 0
CLASSIFICATION_TYPE = U
NORAD_CAT_ID   = 31114
ELEMENT_SET_NO = 999
REV_AT_EPOCH   = 98197
BSTAR          = .79625E-4
MEAN_MOTION_DOT = .132E-5
MEAN_MOTION_DDOT = 0

CCSDS_OMM_VERS = 2.0
CREATION_DATE  = 
ORIGINATOR     = 

OBJECT_NAME    = COSMO-SKYMED 1
OBJECT_ID      = 2007-023A
CENTER_NAME    = EARTH
REF_FRAME      = TEME
TIME_SYSTEM    = UTC
MEAN_ELEMENT_THEORY = SGP/SGP4

EPOCH          = 2026-03-25T20:16:02.640000
MEAN_MOTION    = 14.96650159
ECCENTRICITY   = .0000992
INCLINATION    = 97.8879
RA_OF_ASC_NODE = 276.0082
ARG_OF_PERICENTER = 91.8057
MEAN_ANOMALY   = 268.3278

EPHEMERIS_TYPE = 0
CLASSIFICATION_TYPE = U
NORAD_CAT_ID   = 31598
ELEMENT_SET_NO = 999
REV_AT_EPOCH   = 1732
BSTAR          = .25136E-3
MEAN_MOTION_DOT = .2807E-4
MEAN_MOTION_DDOT = 0

CCSDS_OMM_VERS = 2.0
CREATION_DATE  = 
ORIGINATOR     = 

OBJECT_NAME    = COSMOS 2428
OBJECT_ID      = 2007-029A
CENTER_NAME    = EARTH
REF_FRAME      = TEME
TIME_SYSTEM    = UTC
MEAN_ELEMENT_THEORY = SGP/SGP4

EPOCH          = 2026-03-25T16:13:24.508704
MEAN_MOTION    = 14.12948134
ECCENTRICITY   = .0009658
INCLINATION    = 70.9439
RA_OF_ASC_NODE = 169.7917
ARG_OF_PERICENTER = 260.7058
MEAN_ANOMALY   = 99.2971

EPHEMERIS_TYPE = 0
CLASSIFICATION_TYPE = U
NORAD_CAT_ID   = 31792
ELEMENT_SET_NO = 999
REV_AT_EPOCH   = 96635
BSTAR          = .12613E-4
MEAN_MOTION_DOT = -.24E-6
MEAN_MOTION_DDOT = 0

CCSDS_OMM_VERS = 2.0
CREATION_DATE  = 
ORIGINATOR     = 

OBJECT_NAME    = SL-16 R/B
OBJECT_ID      = 2007-029B
CENTER_NAME    = EARTH
REF_FRAME      = TEME
TIME_SYSTEM    = UTC
MEAN_ELEMENT_THEORY = SGP/SGP4

EPOCH          = 2026-03-25T15:11:39.441696
MEAN_MOTION    = 14.14842576
ECCENTRICITY   = .0002577
INCLINATION    = 70.9752
RA_OF_ASC_NODE = 138.8721
ARG_OF_PERICENTER = 277.3173
MEAN_ANOMALY   = 247.6505

EPHEMERIS_TYPE = 0
CLASSIFICATION_TYPE = U
NORAD_CAT_ID   = 31793
ELEMENT_SET_NO = 999
REV_AT_EPOCH   = 96762
BSTAR          = .10405E-3
MEAN_MOTION_DOT = .153E-5
MEAN_MOTION_DDOT = 0

CCSDS_OMM_VERS = 2.0
CREATION_DATE  = 
ORIGINATOR     = 

OBJECT_NAME    = KORONAS-FOTON
OBJECT_ID      = 2009-003A
CENTER_NAME    = EARTH
REF_FRAME      = TEME
TIME_SYSTEM    = UTC
MEAN_ELEMENT_THEORY = SGP/SGP4

EPOCH          = 2026-03-25T20:12:22.452192
MEAN_MOTION    = 15.43738198
ECCENTRICITY   = .001181
INCLINATION    = 82.4279
RA_OF_ASC_NODE = 259.0770
ARG_OF_PERICENTER = 97.4405
MEAN_ANOMALY   = 262.8185

EPHEMERIS_TYPE = 0
CLASSIFICATION_TYPE = U
NORAD_CAT_ID   = 33504
ELEMENT_SET_NO = 999
REV_AT_EPOCH   = 94823
BSTAR          = .27364E-3
MEAN_MOTION_DOT = .12431E-3
MEAN_MOTION_DDOT = 0

CCSDS_OMM_VERS = 2.0
CREATION_DATE  = 
ORIGINATOR     = 

OBJECT_NAME    = CZ-2C R/B
OBJECT_ID      = 2011-030B
CENTER_NAME    = EARTH
REF_FRAME      = TEME
TIME_SYSTEM    = UTC
MEAN_ELEMENT_THEORY = SGP/SGP4

EPOCH          = 2026-03-25T21:24:55.570176
MEAN_MOTION    = 14.81277575
ECCENTRICITY   = .0051217
INCLINATION    = 97.8571
RA_OF_ASC_NODE = 41.8345
ARG_OF_PERICENTER = 298.5761
MEAN_ANOMALY   = 124.8643

EPHEMERIS_TYPE = 0
CLASSIFICATION_TYPE = U
NORAD_CAT_ID   = 37731
ELEMENT_SET_NO = 999
REV_AT_EPOCH   = 79249
BSTAR          = .19172E-3
MEAN_MOTION_DOT = .1473E-4
MEAN_MOTION_DDOT = 0

CCSDS_OMM_VERS = 2.0
CREATION_DATE  = 
ORIGINATOR     = 

OBJECT_NAME    = H-2A R/B
OBJECT_ID      = 2012-025E
CENTER_NAME    = EARTH
REF_FRAME      = TEME
TIME_SYSTEM    = UTC
MEAN_ELEMENT_THEORY = SGP/SGP4

EPOCH          = 2026-03-25T15:44:02.481792
MEAN_MOTION    = 14.95276628
ECCENTRICITY   = .0042698
INCLINATION    = 98.4758
RA_OF_ASC_NODE = 52.9839
ARG_OF_PERICENTER = 260.1706
MEAN_ANOMALY   = 99.4690

EPHEMERIS_TYPE = 0
CLASSIFICATION_TYPE = U
NORAD_CAT_ID   = 38341
ELEMENT_SET_NO = 999
REV_AT_EPOCH   = 75060
BSTAR          = .32417E-3
MEAN_MOTION_DOT = .3564E-4
MEAN_MOTION_DDOT = 0

CCSDS_OMM_VERS = 2.0
CREATION_DATE  = 
ORIGINATOR     = 

OBJECT_NAME    = SHIJIAN-16 (SJ-16)
OBJECT_ID      = 2013-057A
CENTER_NAME    = EARTH
REF_FRAME      = TEME
TIME_SYSTEM    = UTC
MEAN_ELEMENT_THEORY = SGP/SGP4

EPOCH          = 2026-03-25T20:26:58.931808
MEAN_MOTION    = 14.92410309
ECCENTRICITY   = .0015239
INCLINATION    = 74.9725
RA_OF_ASC_NODE = 154.4931
ARG_OF_PERICENTER = 70.7329
MEAN_ANOMALY   = 289.5506

EPHEMERIS_TYPE = 0
CLASSIFICATION_TYPE = U
NORAD_CAT_ID   = 39358
ELEMENT_SET_NO = 999
REV_AT_EPOCH   = 67391
BSTAR          = .12997E-3
MEAN_MOTION_DOT = .1305E-4
MEAN_MOTION_DDOT = 0

CCSDS_OMM_VERS = 2.0
CREATION_DATE  = 
ORIGINATOR     = 

OBJECT_NAME    = SL-4 R/B
OBJECT_ID      = 2014-021B
CENTER_NAME    = EARTH
REF_FRAME      = TEME
TIME_SYSTEM    = UTC
MEAN_ELEMENT_THEORY = SGP/SGP4

EPOCH          = 2026-03-25T19:01:41.820096
MEAN_MOTION    = 15.39717175
ECCENTRICITY   = .0095971
INCLINATION    = 51.6053
RA_OF_ASC_NODE = 258.6863
ARG_OF_PERICENTER = 161.6166
MEAN_ANOMALY   = 198.8326

EPHEMERIS_TYPE = 0
CLASSIFICATION_TYPE = U
NORAD_CAT_ID   = 39679
ELEMENT_SET_NO = 999
REV_AT_EPOCH   = 65875
BSTAR          = .37834E-3
MEAN_MOTION_DOT = .17461E-3
MEAN_MOTION_DDOT = 0

