H-2A R/B                
1 28932U 06002B   26084.64201254  .00010616  00000+0  52589-3 0  9991
2 28932  98.2440 233.0443 0052352 186.4070 173.6498 15.16761177 96853
RESURS-DK 1             
1 29228U 06021A   26084.73524088  .00002297  00000+0  13646-3 0  9991
2 29228  69.9337 195.5164 0000875  71.7996 288.3265 15.12846664 89950
CZ-4B R/B               
1 29507U 06046C   26084.83592333  .00003723  00000+0  18914-3 0  9995
2 29507  97.5563 129.7007 0032443 209.0385 150.9045 15.17062622 62496
CZ-2C R/B               
1 31114U 07010B   26084.57719572  .00000132  00000+0  79625-4 0  9999
2 31114  98.3996 197.0610 0057936 247.5032 112.0005 14.20251720981970
COSMO-SKYMED 1          
1 31598U 07023A   26084.84447500  .00002807  00000+0  25136-3 0  9996
2 31598  97.8879 276.0082 0000992  91.8057 268.3278 14.96650159 17326
COSMOS 2428             
1 31792U 07029A   26084.67597811 -.00000024  00000+0  12613-4 0  9997
2 31792  70.9439 169.7917 0009658 260.7058  99.2971 14.12948134966355
SL-16 R/B               
1 31793U 07029B   26084.63309539  .00000153  00000+0  10405-3 0  9990
2 31793  70.9752 138.8721 0002577 277.3173 247.6505 14.14842576967627
KORONAS-FOTON           
1 33504U 09003A   26084.84192653  .00012431  00000+0  27364-3 0  9990
2 33504  82.4279 259.0770 0011810  97.4405 262.8185 15.43738198948236
CZ-2C R/B               
1 37731U 11030B   26084.89230984  .00001473  00000+0  19172-3 0  9996
2 37731  97.8571  41.8345 0051217 298.5761 124.8643 14.81277575792495
H-2A R/B                
1 38341U 12025E   26084.65558428  .00003564  00000+0  32417-3 0  9999
2 38341  98.4758  52.9839 0042698 260.1706  99.4690 14.95276628750604
SHIJIAN-16 (SJ-16)      
1 39358U 13057A   26084.85207097  .00001305  00000+0  12997-3 0  9991
2 39358  74.9725 154.4931 0015239  70.7329 289.5506 14.92410309673913
SL-4 R/B                
1 39679U 14021B   26084.79284514  .00017461  00000+0  37834-3 0  9998
2 39679  51.6053 258.6863 0095971 161.6166 198.8326 15.39717175658756
